      2.10          N: GNSS NAV DATA                        RINEX VERSION / TYPE
fic2rin                                 06/13/2021 00:17:15 PGM / RUN BY / DATE
                                                            END OF HEADER
 6 21  6 12 10  0  0.0 2.601835876703e-05 4.547473508865e-12 0.000000000000e+00
    2.600000000000e+01-1.092187500000e+02 3.941949912322e-09-2.383663539120e+00
   -5.714595317841e-06 2.154135843739e-03 3.874301910400e-06 5.153780849457e+03
    5.544000000000e+05 1.490116119385e-08 2.585502233872e+00 5.029141902924e-08
    9.841340688828e-01 3.187187500000e+02-9.645092393613e-01-7.934973380634e-09
   -2.960837616486e-10 1.000000000000e+00 2.161000000000e+03 0.000000000000e+00
    2.400000000000e+00 0.000000000000e+00 4.190951585770e-09 2.600000000000e+01
    5.472000000000e+05 4.000000000000e+00
 7 21  6 12 10  0  0.0 1.761759631336e-04 9.777068044059e-12 0.000000000000e+00
    3.500000000000e+01-1.312500000000e+01 4.898775482233e-09 3.099626071868e+00
   -8.009374141693e-07 1.505581662059e-02 7.709488272667e-06 5.153752428055e+03
    5.544000000000e+05-5.215406417847e-08-5.500783633032e-01-2.663582563400e-07
    9.515990897160e-01 2.275625000000e+02-2.327216669481e+00-7.808539542729e-09
   -4.564475843026e-10 1.000000000000e+00 2.161000000000e+03 0.000000000000e+00
    2.400000000000e+00 0.000000000000e+00-1.117587089539e-08 3.500000000000e+01
    5.472000000000e+05 4.000000000000e+00
10 21  6 12 10  0  0.0-1.407652162015e-04-7.617018127348e-12 0.000000000000e+00
    9.400000000000e+01-8.578125000000e+01 3.893733618206e-09 1.673391443173e+00
   -4.377216100693e-06 6.652693147771e-03 1.022033393383e-05 5.153681211472e+03
    5.544000000000e+05-1.154839992523e-07-2.655354086659e+00 6.146728992462e-08
    9.697062485233e-01 1.865312500000e+02-2.566266470339e+00-7.632817937505e-09
    3.171560679661e-10 1.000000000000e+00 2.161000000000e+03 0.000000000000e+00
    2.400000000000e+00 0.000000000000e+00 2.328306436539e-09 9.400000000000e+01
    5.472000000000e+05 4.000000000000e+00
 9 21  6 12 10  0  0.0-3.506960347295e-04-1.932676241267e-12 0.000000000000e+00
    1.050000000000e+02 1.506250000000e+01 4.954134931034e-09 5.921645444302e-02
    5.327165126801e-07 1.860055141151e-03 6.228685379028e-06 5.153760911942e+03
    5.544000000000e+05-9.313225746155e-09-1.622876090458e+00 1.490116119385e-08
    9.528956037896e-01 2.530312500000e+02 1.829107130911e+00-8.157482649039e-09
    4.903775690512e-10 1.000000000000e+00 2.161000000000e+03 0.000000000000e+00
    2.400000000000e+00 0.000000000000e+00 1.396983861923e-09 1.050000000000e+02
    5.472000000000e+05 4.000000000000e+00
32 21  6 12 10  0  0.0 1.874426379800e-05-1.250555214938e-12 0.000000000000e+00
    2.100000000000e+01 6.562500000000e+00 4.891275169815e-09 3.263109507895e-01
    2.514570951462e-07 5.004365928471e-03 6.483867764473e-06 5.153673173904e+03
    5.544000000000e+05-2.235174179077e-08-1.612767118795e+00 7.823109626770e-08
    9.568578106143e-01 2.553125000000e+02-2.359820126380e+00-8.063193007211e-09
    4.639478967207e-10 1.000000000000e+00 2.161000000000e+03 0.000000000000e+00
    2.400000000000e+00 0.000000000000e+00 4.656612873077e-10 2.100000000000e+01
    5.472000000000e+05 4.000000000000e+00
31 21  6 12 10  0  0.0-1.226225867867e-04-2.160049916711e-12 0.000000000000e+00
    9.600000000000e+01-1.003125000000e+01 4.906990110120e-09 2.533609479416e+00
   -4.805624485016e-07 1.002358342521e-02 7.577240467072e-06 5.153542705536e+03
    5.544000000000e+05-2.477318048477e-07-5.329659083294e-01-4.842877388000e-08
    9.559230571637e-01 2.329062500000e+02 2.634290643979e-01-7.882114035973e-09
   -4.160887603384e-10 1.000000000000e+00 2.161000000000e+03 0.000000000000e+00
    2.400000000000e+00 0.000000000000e+00-1.303851604462e-08 9.600000000000e+01
    5.472000000000e+05 4.000000000000e+00
30 21  6 12 10  0  0.0-4.380000755191e-04-4.661160346586e-12 0.000000000000e+00
    9.500000000000e+01-9.812500000000e+00 5.283077204228e-09 2.942273741603e+00
   -4.451721906662e-07 5.294234142639e-03 7.573515176773e-06 5.153690332413e+03
    5.544000000000e+05-8.195638656616e-08-5.331487043321e-01-3.539025783539e-08
    9.368218557620e-01 2.243437500000e+02-2.763723571837e+00-8.116409509606e-09
   -4.371610666560e-10 1.000000000000e+00 2.161000000000e+03 0.000000000000e+00
    3.400000000000e+00 0.000000000000e+00 3.725290298462e-09 9.500000000000e+01
    5.472000000000e+05 4.000000000000e+00
27 21  6 12 10  0  0.0-1.458507031202e-04-6.252776074689e-12 0.000000000000e+00
    5.400000000000e+01 7.943750000000e+01 4.384111187257e-09-4.245986935999e-01
    4.118308424950e-06 9.434426436201e-03 2.164393663406e-06 5.153684036255e+03
    5.544000000000e+05 2.607703208923e-08 1.535601538734e+00 1.490116119385e-07
    9.755810232427e-01 3.424687500000e+02 6.320244831566e-01-8.313917736616e-09
    1.071473202588e-12 1.000000000000e+00 2.161000000000e+03 0.000000000000e+00
    2.400000000000e+00 0.000000000000e+00 1.862645149231e-09 5.400000000000e+01
    5.472000000000e+05 4.000000000000e+00
22 21  6 12 10  0  0.0-5.904813297093e-04 9.663381206337e-12 0.000000000000e+00
    5.100000000000e+01-7.743750000000e+01 4.608763402066e-09-1.390346900226e+00
   -3.995373845100e-06 7.024913094938e-03 1.001730561256e-05 5.153819377899e+03
    5.544000000000e+05-1.043081283569e-07-2.752490191099e+00 5.587935447693e-08
    9.354658930865e-01 1.752187500000e+02-9.403037587858e-01-8.029620180196e-09
    3.896590880079e-10 1.000000000000e+00 2.161000000000e+03 0.000000000000e+00
    2.400000000000e+00 0.000000000000e+00-1.769512891769e-08 5.100000000000e+01
    5.472000000000e+05 4.000000000000e+00
19 21  6 12 10  0  0.0 1.234933733940e-05 5.002220859751e-12 0.000000000000e+00
    3.500000000000e+01 5.806250000000e+01 4.210889686172e-09 2.082745307388e+00
    2.909451723099e-06 9.317028918304e-03 3.818422555923e-07 5.153637804031e+03
    5.544000000000e+05 1.825392246246e-07 1.641625531744e+00-1.862645149231e-08
    9.803167450759e-01 3.778125000000e+02 1.857648255946e+00-8.043192174096e-09
   -8.178912113090e-11 1.000000000000e+00 2.161000000000e+03 0.000000000000e+00
    2.400000000000e+00 0.000000000000e+00-1.536682248116e-08 3.500000000000e+01
    5.472000000000e+05 4.000000000000e+00
21 21  6 12 10  0  0.0 1.245085150003e-04 2.501110429876e-12 0.000000000000e+00
    5.500000000000e+01-9.331250000000e+01 4.539831959366e-09-2.326762047207e-01
   -4.885718226433e-06 2.403510455042e-02 3.192573785782e-06 5.153677993774e+03
    5.544000000000e+05-4.172325134277e-07 2.509584764313e+00-3.017485141754e-07
    9.574327359565e-01 3.212812500000e+02-1.127881018166e+00-8.575000040314e-09
   -1.753644474903e-10 1.000000000000e+00 2.161000000000e+03 0.000000000000e+00
    2.400000000000e+00 0.000000000000e+00-1.024454832077e-08 5.500000000000e+01
    5.472000000000e+05 4.000000000000e+00
13 21  6 12 10  0  0.0 1.438842155039e-04 4.888534022029e-12 0.000000000000e+00
    3.700000000000e+01 3.906250000000e+00 4.738054501845e-09-9.369780880983e-01
    3.743916749954e-07 5.002858466469e-03 5.731359124184e-06 5.153670421600e+03
    5.544000000000e+05 4.656612873077e-08-1.473915263104e+00 1.136213541031e-07
    9.676267733791e-01 2.732812500000e+02 9.610059835852e-01-7.990332829435e-09
    3.425142670940e-10 1.000000000000e+00 2.161000000000e+03 0.000000000000e+00
    2.400000000000e+00 0.000000000000e+00-1.117587089539e-08 3.700000000000e+01
    5.472000000000e+05 4.000000000000e+00
24 21  6 12 10  0  0.0 1.283911988139e-04 1.830358087318e-11 0.000000000000e+00
    3.400000000000e+01-1.084375000000e+01 5.390938839956e-09-2.229668327893e+00
   -7.562339305878e-07 1.112795539666e-02 6.731599569321e-06 5.153720197678e+03
    5.544000000000e+05 1.788139343262e-07-6.286103190915e-01-1.080334186554e-07
    9.349279576279e-01 2.340937500000e+02 7.409827913989e-01-8.140696235531e-09
   -2.700112470522e-10 1.000000000000e+00 2.161000000000e+03 0.000000000000e+00
    2.400000000000e+00 0.000000000000e+00 2.793967723846e-09 3.400000000000e+01
    5.472000000000e+05 4.000000000000e+00
28 21  6 12 10  0  0.0 5.559488199651e-04-6.366462912410e-12 0.000000000000e+00
    5.400000000000e+01 1.016562500000e+02 4.214461263514e-09 1.628396291870e-01
    5.412846803665e-06 1.748025696725e-02 9.179115295410e-06 5.153737565994e+03
    5.544000000000e+05-1.695007085800e-07 5.823886484934e-01-1.192092895508e-07
    9.729144702957e-01 2.150937500000e+02-1.347044171054e+00-8.075693527908e-09
   -1.446488823494e-10 1.000000000000e+00 2.161000000000e+03 0.000000000000e+00
    2.400000000000e+00 0.000000000000e+00-1.117587089539e-08 5.400000000000e+01
    5.472000000000e+05 4.000000000000e+00
16 21  6 12 10  0  0.0-3.400384448469e-04-6.025402399246e-12 0.000000000000e+00
    1.310000000000e+02 9.984375000000e+01 4.118742990749e-09 5.243116828861e-01
    5.504116415977e-06 1.218140998390e-02 9.479001164436e-06 5.153714220047e+03
    5.544000000000e+05-5.774199962616e-08 5.788257319922e-01 1.750886440277e-07
    9.738231282136e-01 2.017812500000e+02 6.802164147497e-01-7.855327205909e-09
   -2.746542975968e-10 1.000000000000e+00 2.161000000000e+03 0.000000000000e+00
    3.400000000000e+00 0.000000000000e+00-1.024454832077e-08 1.310000000000e+02
    5.472000000000e+05 4.000000000000e+00
15 21  6 12 10  0  0.0-1.429296098650e-04 2.614797267597e-12 0.000000000000e+00
    1.010000000000e+02 1.231250000000e+01 5.442012395946e-09-1.280286351968e+00
    9.369105100632e-07 1.320767577272e-02 6.159767508507e-06 5.153619235992e+03
    5.544000000000e+05 2.998858690262e-07-1.722407452613e+00 1.955777406693e-07
    9.286234273160e-01 2.375937500000e+02 9.882530127504e-01-8.316417840756e-09
    5.560945921433e-10 1.000000000000e+00 2.161000000000e+03 0.000000000000e+00
    2.400000000000e+00 0.000000000000e+00-1.071020960808e-08 1.010000000000e+02
    5.472000000000e+05 4.000000000000e+00
